STARLINK-31166          
1 58789U 24012C   26068.27101481 -.00000258  00000+0  13935-6 0  9994
2 58789  43.0012 167.4663 0001416 296.9428  63.1279 15.27574391121178
REAL                    
1 64875U 25154G   26068.72233414  .00022901  00000+0  82904-3 0  9994
2 64875  97.4133 137.2581 0001853 118.5876 241.5550 15.28408058 34830
